#aV2016  6 30  0  0  0.00000000     288 DD+AD WGS84 FIT  NGA
## 1903 345600.00000000   300.00000000 57569 0.0000000000000
+   31     1  2  3  5  6  7  8  9 10 11 12 13 14 15 16 17 18
+         19 20 21 22 23 24 25 26 27 28 29 30 31 32  0  0  0
+          0  0  0  0  0  0  0  0  0  0  0  0  0  0  0  0  0
+          0  0  0  0  0  0  0  0  0  0  0  0  0  0  0  0  0
+          0  0  0  0  0  0  0  0  0  0  0  0  0  0  0  0  0
++         2  2  2  2  2  2  2  2  2  2  2  2  2  2  2  2  2
++         2  2  2  2  2  2  2  2  2  2  2  2  2  2  0  0  0
++         0  0  0  0  0  0  0  0  0  0  0  0  0  0  0  0  0
++         0  0  0  0  0  0  0  0  0  0  0  0  0  0  0  0  0
++         0  0  0  0  0  0  0  0  0  0  0  0  0  0  0  0  0
%c cc cc ccc ccc cccc cccc cccc cccc ccccc ccccc ccccc ccccc
%c cc cc ccc ccc cccc cccc cccc cccc ccccc ccccc ccccc ccccc
%f  0.0000000  0.000000000  0.00000000000  0.000000000000000
%f  0.0000000  0.000000000  0.00000000000  0.000000000000000
%i    0    0    0    0      0      0      0      0         0
%i    0    0    0    0      0      0      0      0         0
/*      NGA, ST. LOUIS,MO.                                  
/*   EPHEMERIS COMPUTED FROM 2 DAYS OF DATA                 
/*   EPOCHA v2.4 SMOOTHER                                   
/*   G1762  SATAF SATAPC                                    
*  2016  6 30 14 25  0.00000000
P  1   1393.018478 -16122.474684 -21100.310627     25.350151                    
V  1  25237.118812  -8554.624051   8470.973371      0.012653                    
P  2 -20141.449182  15102.636689   8259.458680    581.197821                    
V  2 -10529.391469    869.728860 -29208.794791     -0.037421                    
P  3  -9423.184515 -20446.588874 -14085.436563    -71.762252                    
V  3  15260.109331   9615.223492 -24153.763529     -0.032252                    
P  5  -9189.613627  12494.994603  21490.164201   -108.919621                    
V  5 -21628.090988 -16994.260372    825.483956      0.028345                    
P  6 -25355.267793   5443.789667  -5740.894138    212.069158                    
V  6   5888.908071  -5037.943876 -30717.459210      0.053292                    
P  7 -15788.098488  -8859.590151  19714.628832    445.117088                    
V  7  22863.886185  -9067.822426  13931.928720     -0.024679                    
P  8   5803.204499 -25771.355401   2588.738600    -40.982318                    
V  8   2215.088184   3613.327720  31621.545913     -0.014295                    
P  9  -8541.437864 -19311.649378  16085.467930    158.542437                    
V  9   5128.965500 -19923.777737 -21198.511053      0.072636                    
P 10  22644.717911   8114.887536 -11318.453691    -56.263469                    
V 10   9664.445042  10920.812091  27044.363643     -0.077023                    
P 11   4338.760101 -21160.663614 -16000.256477   -654.156959                    
V 11  16481.433409 -10931.633115  19651.217233     -0.014105                    
P 12   6083.494523  20131.918073 -16486.927339    384.120543                    
V 12 -15942.820335 -12986.060525 -21716.063912      0.009692                    
P 13 -12491.803478  21632.937904   9026.317736    -28.133642                    
V 13    995.660651 -11765.749648  29094.734049     -0.024718                    
P 14  15827.801459  -5308.630404 -20361.067212    -22.111941                    
V 14  -5193.776818  25981.655805 -10832.507065     -0.020109                    
P 15  -2832.610846  26212.049799    284.757017   -317.450321                    
V 15  -4011.618605   -918.033337  31292.322321     -0.015702                    
P 16  10028.315220 -10489.948319  22138.373948     -7.602316                    
V 16  20697.329652  19281.817550    133.958518      0.023491                    
P 17 -14553.016114  -2228.488634 -21773.678503   -203.984187                    
V 17   5664.913006 -27830.481947  -1102.399819      0.001022                    
P 18  20916.335961  16588.330125    719.039505    531.806064                    
V 18  -2476.457527   2805.086060  30758.554506      0.037571                    
P 19 -16071.220274   8535.947635 -19721.009279   -525.242680                    
V 19   5325.256297 -23775.838036 -14467.958809      0.001924                    
P 20   6924.298384  19608.076363  16353.689430    421.515273                    
V 20 -18927.371703  -9819.097557  19647.454852      0.022414                    
P 21  18369.894289   7227.329788  18627.419741   -527.206763                    
V 21 -19871.551598   9875.787230  16208.058283     -0.009563                    
P 22   -980.388855 -18550.769482 -18701.547648    307.951571                    
V 22  20623.122430  13242.733707 -14155.579409     -0.089415                    
P 23  -2548.543775 -24732.554764   8879.770465   -180.262217                    
V 23   5029.555955 -10499.664507 -28881.438717     -0.015454                    
P 24  -5110.831494  17217.475200 -19561.735694    -19.386310                    
V 24 -23517.548753   8049.774576  13461.309948     -0.005261                    
P 25  16706.060533  19650.350436  -6880.119822   -199.802454                    
V 25  -7833.533073  -3856.558207 -30419.092976     -0.070009                    
P 26  18066.476994  -2802.445948  19278.826614   -410.568289                    
V 26  18283.640497  16324.993990 -14708.310362     -0.105617                    
P 27  11991.187292 -19793.571626  12837.971204    109.353263                    
V 27   -446.767470  16541.628584  26011.197602      0.043183                    
P 28 -21522.673029 -11783.092992  -9588.577779    533.851403                    
V 28  -8177.133311 -10331.772433  29118.094723      0.027367                    
P 29   4981.714585  21909.257137  14197.776303    656.117840                    
V 29  -5528.001724  17188.843403 -24549.034869     -0.005073                    
P 30 -22747.341029  -3066.197614  13449.860284    136.639257                    
V 30  15635.479504  -7236.929334  24674.825726      0.025387                    
P 31  25660.762559  -7249.724362  -2151.176046    261.281108                    
V 31  -1962.624573   2977.693606 -31589.549243     -0.018795                    
P 32  15346.806055    124.460688 -21662.798619    -36.487598                    
V 32  -3992.286670  27254.473843  -2687.524488     -0.091518                    
EOF
